start=new Date('2023-02-18T00:00:00.000Z').valueOf();
sats=[{"OBJECT_ID":"2022-041AU","INCLINATION":"53.2159","MEAN_MOTION_DOT":"0.00002244","ARG_OF_PERICENTER":"75.7384","CLASSIFICATION_TYPE":"U","SEMIMAJOR_AXIS":"6917.876","MEAN_ELEMENT_THEORY":"SGP4","FILE":"3804075","MEAN_MOTION":"15.08841318","CENTER_NAME":"EARTH","TIME_SYSTEM":"UTC","MEAN_MOTION_DDOT":"0.0000000000000","ECCENTRICITY":"0.00015880","TLE_LINE2":"2 52303  53.2159  68.6341 0001588  75.7384 284.3785 15.08841318 47269","RCS_SIZE":"LARGE","COUNTRY_CODE":"US","DECAY_DATE":null,"GP_ID":"225836538","TLE_LINE1":"1 52303U 22041AU  23048.78109744  .00002244  00000-0  15902-3 0  9991","SITE":"AFETR","REF_FRAME":"TEME","REV_AT_EPOCH":"4726","MEAN_ANOMALY":"284.3785","LAUNCH_DATE":"2022-04-21","PERIOD":"95.437","ELEMENT_SET_NO":"999","EPOCH":"2023-02-17T18:44:46.818816","OBJECT_TYPE":"PAYLOAD","NORAD_CAT_ID":"52303","EPHEMERIS_TYPE":"0","OBJECT_NAME":"STARLINK-3742","RA_OF_ASC_NODE":"68.6341","BSTAR":"0.00015902000000","PERIAPSIS":"538.643","APOAPSIS":"540.840"},{"ELEMENT_SET_NO":"999","OBJECT_TYPE":"PAYLOAD","EPOCH":"2023-02-17T10:22:40.336320","PERIOD":"95.437","LAUNCH_DATE":"2022-04-21","MEAN_ANOMALY":"265.0555","REF_FRAME":"TEME","REV_AT_EPOCH":"4612","TLE_LINE1":"1 52304U 22041AV  23048.43241130  .00007788  00000-0  50672-3 0  9991","SITE":"AFETR","PERIAPSIS":"538.810","APOAPSIS":"540.605","BSTAR":"0.00050672000000","RA_OF_ASC_NODE":"60.1984","EPHEMERIS_TYPE":"0","OBJECT_NAME":"STARLINK-3744","NORAD_CAT_ID":"52304","SEMIMAJOR_AXIS":"6917.843","MEAN_ELEMENT_THEORY":"SGP4","CLASSIFICATION_TYPE":"U","ARG_OF_PERICENTER":"95.0585","MEAN_MOTION_DOT":"0.00007788","INCLINATION":"53.2153","OBJECT_ID":"2022-041AV","DECAY_DATE":null,"GP_ID":"225782527","RCS_SIZE":"LARGE","COUNTRY_CODE":"US","ECCENTRICITY":"0.00012980","MEAN_MOTION_DDOT":"0.0000000000000","TLE_LINE2":"2 52304  53.2153  60.1984 0001298  95.0585 265.0555 15.08852392 46129","CENTER_NAME":"EARTH","TIME_SYSTEM":"UTC","MEAN_MOTION":"15.08852392","FILE":"3802730"},{"ELEMENT_SET_NO":"999","OBJECT_TYPE":"PAYLOAD","EPOCH":"2023-02-17T22:00:00.999936","LAUNCH_DATE":"2022-04-21","PERIOD":"95.441","MEAN_ANOMALY":"250.3232","TLE_LINE1":"1 52305U 22041AW  23048.91667824  .00068497  00000-0  42870-2 0  9991","SITE":"AFETR","REF_FRAME":"TEME","REV_AT_EPOCH":"130","PERIAPSIS":"538.778","APOAPSIS":"541.058","RA_OF_ASC_NODE":"68.1234","BSTAR":"0.00428700000000","NORAD_CAT_ID":"52305","EPHEMERIS_TYPE":"0","OBJECT_NAME":"STARLINK-3724","SEMIMAJOR_AXIS":"6918.053","MEAN_ELEMENT_THEORY":"SGP4","ARG_OF_PERICENTER":"106.6610","CLASSIFICATION_TYPE":"U","MEAN_MOTION_DOT":"0.00068497","OBJECT_ID":"2022-041AW","INCLINATION":"53.2140","DECAY_DATE":null,"GP_ID":"225837539","ECCENTRICITY":"0.00016480","MEAN_MOTION_DDOT":"0.0000000000000","TLE_LINE2":"2 52305  53.2140  68.1234 0001648 106.6610 250.3232 15.08783424  1308","RCS_SIZE":"MEDIUM","COUNTRY_CODE":"US","CENTER_NAME":"EARTH","TIME_SYSTEM":"UTC","FILE":"3804075","MEAN_MOTION":"15.08783424"},{"EPOCH":"2023-02-17T18:14:17.634048","OBJECT_TYPE":"PAYLOAD","ELEMENT_SET_NO":"999","LAUNCH_DATE":"2022-04-21","PERIOD":"95.438","MEAN_ANOMALY":"294.0397","SITE":"AFETR","TLE_LINE1":"1 52306U 22041AX  23048.75992632  .00010105  00000-0  65222-3 0  9992","REF_FRAME":"TEME","REV_AT_EPOCH":"4739","APOAPSIS":"540.198","PERIAPSIS":"539.338","RA_OF_ASC_NODE":"58.7207","BSTAR":"0.00065222000000","NORAD_CAT_ID":"52306","OBJECT_NAME":"STARLINK-3747","EPHEMERIS_TYPE":"0","MEAN_ELEMENT_THEORY":"SGP4","SEMIMAJOR_AXIS":"6917.903","ARG_OF_PERICENTER":"66.0661","CLASSIFICATION_TYPE":"U","MEAN_MOTION_DOT":"0.00010105","INCLINATION":"53.2177","OBJECT_ID":"2022-041AX","DECAY_DATE":null,"GP_ID":"225838289","TLE_LINE2":"2 52306  53.2177  58.7207 0000622  66.0661 294.0397 15.08832639 47399","ECCENTRICITY":"0.00006220","MEAN_MOTION_DDOT":"0.0000000000000","COUNTRY_CODE":"US","RCS_SIZE":"LARGE","TIME_SYSTEM":"UTC","CENTER_NAME":"EARTH","FILE":"3804075","MEAN_MOTION":"15.08832639"},{"ELEMENT_SET_NO":"999","OBJECT_TYPE":"PAYLOAD","EPOCH":"2023-02-17T18:34:09.945408","LAUNCH_DATE":"2022-04-21","PERIOD":"95.438","MEAN_ANOMALY":"263.7138","TLE_LINE1":"1 52307U 22041AY  23048.77372622 -.00001007  00000-0 -45226-4 0  9992","SITE":"AFETR","REF_FRAME":"TEME","REV_AT_EPOCH":"4604","PERIAPSIS":"538.906","APOAPSIS":"540.602","RA_OF_ASC_NODE":"68.6654","BSTAR":"-0.00004522600000","NORAD_CAT_ID":"52307","EPHEMERIS_TYPE":"0","OBJECT_NAME":"STARLINK-3755","SEMIMAJOR_AXIS":"6917.889","MEAN_ELEMENT_THEORY":"SGP4","ARG_OF_PERICENTER":"96.3994","CLASSIFICATION_TYPE":"U","MEAN_MOTION_DOT":"-0.00001007","INCLINATION":"53.2152","OBJECT_ID":"2022-041AY","DECAY_DATE":null,"GP_ID":"225837038","MEAN_MOTION_DDOT":"0.0000000000000","ECCENTRICITY":"0.00012260","TLE_LINE2":"2 52307  53.2152  68.6654 0001226  96.3994 263.7138 15.08837291 46041","COUNTRY_CODE":"US","RCS_SIZE":"LARGE","CENTER_NAME":"EARTH","TIME_SYSTEM":"UTC","FILE":"3804075","MEAN_MOTION":"15.08837291"},{"CENTER_NAME":"EARTH","TIME_SYSTEM":"UTC","FILE":"3804075","MEAN_MOTION":"15.08833165","DECAY_DATE":null,"GP_ID":"225836789","MEAN_MOTION_DDOT":"0.0000000000000","ECCENTRICITY":"0.00014480","TLE_LINE2":"2 52308  53.2172  58.7618 0001448  80.8942 279.2214 15.08833165 47393","COUNTRY_CODE":"US","RCS_SIZE":"LARGE","MEAN_MOTION_DOT":"0.00000921","INCLINATION":"53.2172","OBJECT_ID":"2022-041AZ","SEMIMAJOR_AXIS":"6917.901","MEAN_ELEMENT_THEORY":"SGP4","ARG_OF_PERICENTER":"80.8942","CLASSIFICATION_TYPE":"U","RA_OF_ASC_NODE":"58.7618","BSTAR":"0.00007594800000","NORAD_CAT_ID":"52308","EPHEMERIS_TYPE":"0","OBJECT_NAME":"STARLINK-3745","PERIAPSIS":"538.765","APOAPSIS":"540.768","MEAN_ANOMALY":"279.2214","TLE_LINE1":"1 52308U 22041AZ  23048.75257076  .00000921  00000-0  75948-4 0  9992","SITE":"AFETR","REF_FRAME":"TEME","REV_AT_EPOCH":"4739","ELEMENT_SET_NO":"999","OBJECT_TYPE":"PAYLOAD","EPOCH":"2023-02-17T18:03:42.113664","LAUNCH_DATE":"2022-04-21","PERIOD":"95.438"},{"GP_ID":"225838039","DECAY_DATE":null,"RCS_SIZE":"LARGE","COUNTRY_CODE":"US","ECCENTRICITY":"0.00012370","MEAN_MOTION_DDOT":"0.0000000000000","TLE_LINE2":"2 52309  53.2153  58.7417 0001237  80.8812 279.2320 15.08828165 47394","CENTER_NAME":"EARTH","TIME_SYSTEM":"UTC","MEAN_MOTION":"15.08828165","FILE":"3804075","MEAN_ELEMENT_THEORY":"SGP4","SEMIMAJOR_AXIS":"6917.917","CLASSIFICATION_TYPE":"U","ARG_OF_PERICENTER":"80.8812","MEAN_MOTION_DOT":"0.00008198","OBJECT_ID":"2022-041BA","INCLINATION":"53.2153","PERIAPSIS":"538.926","APOAPSIS":"540.637","BSTAR":"0.00053274000000","RA_OF_ASC_NODE":"58.7417","EPHEMERIS_TYPE":"0","OBJECT_NAME":"STARLINK-3756","NORAD_CAT_ID":"52309","ELEMENT_SET_NO":"999","EPOCH":"2023-02-17T18:08:59.853120","OBJECT_TYPE":"PAYLOAD","PERIOD":"95.438","LAUNCH_DATE":"2022-04-21","MEAN_ANOMALY":"279.2320","REF_FRAME":"TEME","REV_AT_EPOCH":"4739","TLE_LINE1":"1 52309U 22041BA  23048.75624830  .00008198  00000-0  53274-3 0  9990","SITE":"AFETR"},{"APOAPSIS":"540.690","PERIAPSIS":"538.801","BSTAR":"-0.00000106110000","RA_OF_ASC_NODE":"58.7928","OBJECT_NAME":"STARLINK-3688","EPHEMERIS_TYPE":"0","NORAD_CAT_ID":"52310","OBJECT_TYPE":"PAYLOAD","EPOCH":"2023-02-17T17:54:28.582560","ELEMENT_SET_NO":"999","PERIOD":"95.438","LAUNCH_DATE":"2022-04-21","MEAN_ANOMALY":"269.8796","REV_AT_EPOCH":"4739","REF_FRAME":"TEME","SITE":"AFETR","TLE_LINE1":"1 52310U 22041BB  23048.74616415 -.00000305  00000-0 -10611-5 0  9995","DECAY_DATE":null,"GP_ID":"225837790","RCS_SIZE":"LARGE","COUNTRY_CODE":"US","TLE_LINE2":"2 52310  53.2175  58.7928 0001365  90.2352 269.8796 15.08839941 47399","MEAN_MOTION_DDOT":"0.0000000000000","ECCENTRICITY":"0.00013650","TIME_SYSTEM":"UTC","CENTER_NAME":"EARTH","MEAN_MOTION":"15.08839941","FILE":"3804075","MEAN_ELEMENT_THEORY":"SGP4","SEMIMAJOR_AXIS":"6917.881","CLASSIFICATION_TYPE":"U","ARG_OF_PERICENTER":"90.2352","MEAN_MOTION_DOT":"-0.00000305","INCLINATION":"53.2175","OBJECT_ID":"2022-041BB"},{"APOAPSIS":"540.612","PERIAPSIS":"538.967","NORAD_CAT_ID":"52311","OBJECT_NAME":"STARLINK-3750","EPHEMERIS_TYPE":"0","RA_OF_ASC_NODE":"58.7749","BSTAR":"0.00119900000000","LAUNCH_DATE":"2022-04-21","PERIOD":"95.438","OBJECT_TYPE":"PAYLOAD","EPOCH":"2023-02-17T17:58:24.639456","ELEMENT_SET_NO":"999","SITE":"AFETR","TLE_LINE1":"1 52311U 22041BC  23048.74889629  .00018838  00000-0  11990-2 0  9991","REF_FRAME":"TEME","REV_AT_EPOCH":"4739","MEAN_ANOMALY":"263.5346","TLE_LINE2":"2 52311  53.2173  58.7749 0001189  96.5781 263.5346 15.08825437 47395","MEAN_MOTION_DDOT":"0.0000000000000","ECCENTRICITY":"0.00011890","COUNTRY_CODE":"US","RCS_SIZE":"LARGE","GP_ID":"225836539","DECAY_DATE":null,"FILE":"3804075","MEAN_MOTION":"15.08825437","TIME_SYSTEM":"UTC","CENTER_NAME":"EARTH","ARG_OF_PERICENTER":"96.5781","CLASSIFICATION_TYPE":"U","MEAN_ELEMENT_THEORY":"SGP4","SEMIMAJOR_AXIS":"6917.925","INCLINATION":"53.2173","OBJECT_ID":"2022-041BC","MEAN_MOTION_DOT":"0.00018838"},{"NORAD_CAT_ID":"52312","OBJECT_NAME":"STARLINK-3752","EPHEMERIS_TYPE":"0","RA_OF_ASC_NODE":"58.3097","BSTAR":"0.00062527000000","APOAPSIS":"540.605","PERIAPSIS":"538.990","SITE":"AFETR","TLE_LINE1":"1 52312U 22041BD  23048.84088686  .00009673  00000-0  62527-3 0  9997","REF_FRAME":"TEME","REV_AT_EPOCH":"4741","MEAN_ANOMALY":"256.8000","LAUNCH_DATE":"2022-04-21","PERIOD":"95.439","EPOCH":"2023-02-17T20:10:52.624704","OBJECT_TYPE":"PAYLOAD","ELEMENT_SET_NO":"999","FILE":"3804075","MEAN_MOTION":"15.08822954","TIME_SYSTEM":"UTC","CENTER_NAME":"EARTH","TLE_LINE2":"2 52312  53.2145  58.3097 0001167 103.3122 256.8000 15.08822954 47415","ECCENTRICITY":"0.00011670","MEAN_MOTION_DDOT":"0.0000000000000","RCS_SIZE":"LARGE","COUNTRY_CODE":"US","GP_ID":"225837289","DECAY_DATE":null,"INCLINATION":"53.2145","OBJECT_ID":"2022-041BD","MEAN_MOTION_DOT":"0.00009673","ARG_OF_PERICENTER":"103.3122","CLASSIFICATION_TYPE":"U","SEMIMAJOR_AXIS":"6917.932","MEAN_ELEMENT_THEORY":"SGP4"}];
